     3.03           N: GNSS NAV DATA    M: Mixed            RINEX VERSION / TYPE
RTKCONV demo5 b33c                      20200312 063544 UTC PGM / RUN BY / DATE 
log: C:\Users\YX\Desktop\rtcm_data.rtcm                     COMMENT             
format: RTCM 3, station ID: 0                               COMMENT             
                                                            END OF HEADER       
G27 2020  3 12  8  0  0 -.236130319536E-03 -.108002495836E-10  .000000000000E+00
      .700000000000E+02 -.656875000000E+02  .393552107311E-08  .114796964246E+01
     -.344216823578E-05  .803474034183E-02  .114440917969E-04  .515366407394E+04
      .374400000000E+06 -.800937414169E-07 -.288780258964E+01  .409781932831E-07
      .978641237204E+00  .169843750000E+03  .517781684714E+00 -.784961268216E-08
     -.273225666660E-09  .100000000000E+01  .209600000000E+04  .000000000000E+00
      .200000000000E+01  .000000000000E+00  .139698386192E-08  .700000000000E+02
      .368447787000E+06  .400000000000E+01
G 8 2020  3 12  8  0  0 -.268127769232E-04 -.136424205266E-11  .000000000000E+00
      .890000000000E+02 -.704062500000E+02  .408124142866E-08  .132389736040E+01
     -.361725687981E-05  .527922995389E-02  .111740082502E-04  .515364188194E+04
      .374400000000E+06  .558793544769E-08 -.290146764305E+01  .689178705215E-07
      .970242113953E+00  .169406250000E+03 -.143341996004E+00 -.786247036059E-08
     -.222866426138E-09  .100000000000E+01  .209600000000E+04  .000000000000E+00
      .200000000000E+01  .000000000000E+00  .512227416039E-08  .890000000000E+02
      .368477387000E+06  .400000000000E+01
G16 2020  3 12  8  0  0 -.134110916406E-03 -.420641299570E-11  .000000000000E+00
      .120000000000E+02 -.372500000000E+02  .446161441558E-08  .204589761061E+01
     -.205263495445E-05  .115104510915E-01  .372156500816E-05  .515372278786E+04
      .374400000000E+06 -.176951289177E-06  .243856217769E+01 -.204890966415E-07
      .979361011917E+00  .321125000000E+03  .611268377622E+00 -.831570352529E-08
     -.270725562521E-09  .100000000000E+01  .209600000000E+04  .000000000000E+00
      .200000000000E+01  .000000000000E+00 -.107102096081E-07  .120000000000E+02
      .368626987000E+06  .400000000000E+01
G 4 2020  3 12  8  0  0 -.610970892012E-04 -.534328137292E-11  .000000000000E+00
      .201000000000E+03 -.288750000000E+02  .435018120251E-08  .187783637622E+00
     -.158511102200E-05  .597326201387E-03  .122357159853E-04  .515371967888E+04
      .374400000000E+06 -.633299350739E-07  .287139287224E+00 -.167638063431E-07
      .960461507420E+00  .139218750000E+03 -.267246149603E+01 -.797818946647E-08
     -.416088760338E-09  .100000000000E+01  .209600000000E+04  .000000000000E+00
      .200000000000E+01  .000000000000E+00 -.419095158577E-08  .969000000000E+03
      .368747587000E+06  .400000000000E+01
G 9 2020  3 12  8  0  0 -.174730084836E-03 -.818545231596E-11  .000000000000E+00
      .120000000000E+02 -.330312500000E+02  .449197282298E-08  .153079688127E+01
     -.191293656826E-05  .167286500800E-02  .119283795357E-04  .515378145027E+04
      .374400000000E+06 -.614672899246E-07  .239850101897E+00 -.186264514923E-07
      .953165851572E+00  .142687500000E+03  .178855480769E+01 -.802640576059E-08
     -.437161066656E-09  .100000000000E+01  .209600000000E+04  .000000000000E+00
      .200000000000E+01  .000000000000E+00  .139698386192E-08  .120000000000E+02
      .368807987000E+06  .400000000000E+01
G23 2020  3 12  8  0  0 -.130285043269E-03  .272848410532E-11  .000000000000E+00
      .450000000000E+02 -.295937500000E+02  .485127350359E-08 -.321336041850E+00
     -.155903398991E-05  .135876187123E-01  .116601586342E-04  .515365670586E+04
      .374400000000E+06 -.987201929092E-07  .231977950996E+00  .167638063431E-06
      .943983904764E+00  .145093750000E+03 -.218660256219E+01 -.844320883640E-08
     -.428946438769E-09  .100000000000E+01  .209600000000E+04  .000000000000E+00
      .200000000000E+01  .630000000000E+02 -.200234353542E-07  .450000000000E+02
      .368837986000E+06  .400000000000E+01
G26 2020  3 12  8  0  0  .165906734765E-03  .761701812735E-11  .000000000000E+00
      .800000000000E+01 -.181875000000E+02  .521450291926E-08  .294318400288E+01
     -.925734639168E-06  .471480179112E-02  .264495611191E-05  .515357716751E+04
      .374400000000E+06 -.428408384323E-07  .231781923338E+01  .428408384323E-07
      .947484372219E+00  .323031250000E+03  .206064880755E+00 -.870821987517E-08
     -.129291099779E-09  .100000000000E+01  .209600000000E+04  .000000000000E+00
      .200000000000E+01  .000000000000E+00  .745058059692E-08  .800000000000E+01
      .369227386000E+06  .400000000000E+01
